

*******************************************************************************
Ephemeris / WWW_USER Thu May  4 19:17:48 2023 Pasadena, USA      / Horizons
*******************************************************************************
Target body name: Parker Solar Probe (spacecraft) (-96) {source: Parker_Solar_Probe}
Center body name: Sun (10)                        {source: DE441}
Center-site name: BODY CENTER
*******************************************************************************
Start time      : A.D. 2018-Aug-12 08:16:23.3431 TDB
Stop  time      : A.D. 2023-Jan-01 00:00:00.0000 TDB
Step-size       : 4320 minutes
*******************************************************************************
Center geodetic : 0.0, 0.0, 0.0                   {E-lon(deg),Lat(deg),Alt(km)}
Center cylindric: 0.0, 0.0, 0.0                   {E-lon(deg),Dxy(km),Dz(km)}
Center radii    : 696000.0, 696000.0, 696000.0 km {Equator_a, b, pole_c}
Output units    : KM-S
Calendar mode   : Mixed Julian/Gregorian
Output type     : GEOMETRIC cartesian states
Output format   : 1 (position only)
Reference frame : Ecliptic of J2000.0
*******************************************************************************
            JDTDB,            Calendar Date (TDB),                      X,                      Y,                      Z,
**************************************************************************************************************************
$$SOE
2458963.844714619, A.D. 2020-Apr-24 08:16:23.3431,  1.181760086727333E+08, -2.590931182232448E+07, -7.175537753373181E+06,
2458966.844714619, A.D. 2020-Apr-27 08:16:23.3431,  1.160990841240364E+08, -2.082234823529712E+07, -6.985893429010420E+06,
2458969.844714619, A.D. 2020-Apr-30 08:16:23.3431,  1.133940348811975E+08, -1.562308521621204E+07, -6.758458427317442E+06,
2458972.844714619, A.D. 2020-May-03 08:16:23.3431,  1.100175720951719E+08, -1.033178445694776E+07, -6.491012422121136E+06,
2458975.844714619, A.D. 2020-May-06 08:16:23.3431,  1.059168407060455E+08, -4.973094491184294E+06, -6.180843084059130E+06,
2458978.844714619, A.D. 2020-May-09 08:16:23.3431,  1.010266279370566E+08,  4.217988226680842E+05, -5.824614967716524E+06,
2458981.844714619, A.D. 2020-May-12 08:16:23.3431,  9.526537122033289E+07,  5.811823177954739E+06, -5.418184338722134E+06,
2458984.844714619, A.D. 2020-May-15 08:16:23.3431,  8.852929826331319E+07,  1.114054599630686E+07, -4.956336494691953E+06,
2458987.844714619, A.D. 2020-May-18 08:16:23.3431,  8.068355328152341E+07,  1.632675003047838E+07, -4.432402846173094E+06,
2458990.844714619, A.D. 2020-May-21 08:16:23.3431,  7.154830911893952E+07,  2.124714968208059E+07, -3.837696519434781E+06,
2458993.844714619, A.D. 2020-May-24 08:16:23.3431,  6.087635713133011E+07,  2.570210089347713E+07, -3.160689423740684E+06,
2458996.844714619, A.D. 2020-May-27 08:16:23.3431,  4.831661151374971E+07,  2.934036897458155E+07, -2.385938057508148E+06,
2458999.844714619, A.D. 2020-May-30 08:16:23.3431,  3.336078075198074E+07,  3.147085388966054E+07, -1.493588564796701E+06,
2459002.844714619, A.D. 2020-Jun-02 08:16:23.3431,  1.533979423141663E+07,  3.050615028142105E+07, -4.668036769330986E+05,
2459005.844714619, A.D. 2020-Jun-05 08:16:23.3431, -5.600998464822663E+06,  2.214868447256735E+07,  6.270747324145893E+05,
2459008.844714619, A.D. 2020-Jun-08 08:16:23.3431, -2.028889521579594E+07, -3.552500603049672E+05,  1.166029849980800E+06,
2459011.844714619, A.D. 2020-Jun-11 08:16:23.3431, -1.739570655865379E+07, -2.455957644452065E+07,  6.670280392137617E+05,
2459014.844714619, A.D. 2020-Jun-14 08:16:23.3431, -7.683621946496026E+06, -4.132107663090432E+07, -1.234030386336967E+05,
2459017.844714619, A.D. 2020-Jun-17 08:16:23.3431,  3.218663469898687E+06, -5.299831007860264E+07, -9.127771619316451E+05,
2459020.844714619, A.D. 2020-Jun-20 08:16:23.3431,  1.399013493294771E+07, -6.145197376068497E+07, -1.650381290521737E+06,
2459023.844714619, A.D. 2020-Jun-23 08:16:23.3431,  2.428105166188382E+07, -6.768656000907041E+07, -2.329811618830696E+06,
2459026.844714619, A.D. 2020-Jun-26 08:16:23.3431,  3.399630007058191E+07, -7.228382301592202E+07, -2.953561881720182E+06,
2459029.844714619, A.D. 2020-Jun-29 08:16:23.3431,  4.311995595787689E+07, -7.560968120765941E+07, -3.525729219761487E+06,
2459032.844714619, A.D. 2020-Jul-02 08:16:23.3431,  5.166260531466924E+07, -7.791001570631453E+07, -4.050297446558330E+06,
2459035.844714619, A.D. 2020-Jul-05 08:16:23.3431,  5.964306689830667E+07, -7.935880437488954E+07, -4.530738976380143E+06,
2459038.844714619, A.D. 2020-Jul-08 08:16:23.3431,  6.708154586697762E+07, -8.008431890795769E+07, -4.969979684276275E+06,
2459041.844714619, A.D. 2020-Jul-11 08:16:23.3431,  7.393089922179405E+07, -8.018614917426281E+07, -5.366559469874371E+06,
2459044.844714619, A.D. 2020-Jul-14 08:16:23.3431,  7.936576761753272E+07, -7.966620360332659E+07, -5.671531259130660E+06,
2459047.844714619, A.D. 2020-Jul-17 08:16:23.3431,  8.430482037230305E+07, -7.864659093917887E+07, -5.941044170946274E+06,
2459050.844714619, A.D. 2020-Jul-20 08:16:23.3431,  8.875501122271626E+07, -7.717051387650308E+07, -6.176137385359373E+06,
2459053.844714619, A.D. 2020-Jul-23 08:16:23.3431,  9.272029660809827E+07, -7.527280679594201E+07, -6.377582215028945E+06,
2459056.844714619, A.D. 2020-Jul-26 08:16:23.3431,  9.620208401308739E+07, -7.298237880849250E+07, -6.545766660039090E+06,
2459059.844714619, A.D. 2020-Jul-29 08:16:23.3431,  9.919860843957332E+07, -7.032368883157763E+07, -6.680929930911031E+06,
2459062.844714619, A.D. 2020-Aug-01 08:16:23.3431,  1.017051507178873E+08, -6.731757981465541E+07, -6.783091069855429E+06,
2459065.844714619, A.D. 2020-Aug-04 08:16:23.3431,  1.037139132588653E+08, -6.398198600760512E+07, -6.852051694019876E+06,
2459068.844714619, A.D. 2020-Aug-07 08:16:23.3431,  1.052137958997365E+08, -6.033249787044238E+07, -6.887390833567075E+06,
2459071.844714619, A.D. 2020-Aug-10 08:16:23.3431,  1.061900540068983E+08, -5.638283344033866E+07, -6.888452138296396E+06,
2459074.844714619, A.D. 2020-Aug-13 08:16:23.3431,  1.066238100385150E+08, -5.214525473271422E+07, -6.854321414594769E+06,
2459077.844714619, A.D. 2020-Aug-16 08:16:23.3431,  1.064913762362840E+08, -4.763096496044176E+07, -6.783793330105618E+06,
2459080.844714619, A.D. 2020-Aug-19 08:16:23.3431,  1.057633240437220E+08, -4.285052512359498E+07, -6.675323789108030E+06,
2459083.844714619, A.D. 2020-Aug-22 08:16:23.3431,  1.044032032990351E+08, -3.781433997749411E+07, -6.526963121974532E+06,
2459086.844714619, A.D. 2020-Aug-25 08:16:23.3431,  1.023657576879469E+08, -3.253328566261454E+07, -6.336262281281322E+06,
2459089.844714619, A.D. 2020-Aug-28 08:16:23.3431,  9.959439615224664E+07, -2.701959857220173E+07, -6.100139896434415E+06,
2459092.844714619, A.D. 2020-Aug-31 08:16:23.3431,  9.601752240841490E+07, -2.128823433497004E+07, -5.814690243784810E+06,
2459095.844714619, A.D. 2020-Sep-03 08:16:23.3431,  9.154304224575856E+07, -1.535908924792758E+07, -5.474898519104644E+06,
2459098.844714619, A.D. 2020-Sep-06 08:16:23.3431,  8.604982530490862E+07, -9.260870654059300E+06, -5.074204087426707E+06,
2459101.844714619, A.D. 2020-Sep-09 08:16:23.3431,  7.937379311817709E+07, -3.038317321674347E+06, -4.603801630081867E+06,
2459104.844714619, A.D. 2020-Sep-12 08:16:23.3431,  7.128388094200917E+07,  3.233196184295582E+06, -4.051463308617149E+06,
2459107.844714619, A.D. 2020-Sep-15 08:16:23.3431,  6.143731613692998E+07,  9.414900961514754E+06, -3.399425381412863E+06,
2459110.844714619, A.D. 2020-Sep-18 08:16:23.3431,  4.928833833336488E+07,  1.521996908907070E+07, -2.620322823551220E+06,
2459113.844714619, A.D. 2020-Sep-21 08:16:23.3431,  3.388139663529122E+07,  1.994380117992272E+07, -1.669064762569061E+06,
2459116.844714619, A.D. 2020-Sep-24 08:16:23.3431,  1.340110621484425E+07,  2.126318587297896E+07, -4.737118796290783E+05,
2459119.844714619, A.D. 2020-Sep-27 08:16:23.3431, -1.160006151752714E+07,  8.088156438360494E+06,  7.793853506853711E+05,
2459122.844714619, A.D. 2020-Sep-30 08:16:23.3431, -1.411523742952222E+07, -2.028752555824640E+07,  5.283526219853377E+05,
2459125.844714619, A.D. 2020-Oct-03 08:16:23.3431, -4.630968700505902E+06, -3.869933403845315E+07, -2.733608493396919E+05,
2459128.844714619, A.D. 2020-Oct-06 08:16:23.3431,  5.971734971713488E+06, -5.097068058470681E+07, -1.053746599744983E+06,
2459131.844714619, A.D. 2020-Oct-09 08:16:23.3431,  1.624339956541102E+07, -5.977641133476359E+07, -1.766795413837682E+06,
2459134.844714619, A.D. 2020-Oct-12 08:16:23.3431,  2.592030059474780E+07, -6.630128845052078E+07, -2.413867851609107E+06,
2459137.844714619, A.D. 2020-Oct-15 08:16:23.3431,  3.496125168856228E+07, -7.117111247922502E+07, -3.001320967846472E+06,
2459140.844714619, A.D. 2020-Oct-18 08:16:23.3431,  4.337913719774253E+07, -7.476066773639655E+07, -3.535120317412864E+06,
2459143.844714619, A.D. 2020-Oct-21 08:16:23.3431,  5.119954957273828E+07, -7.731458081332140E+07, -4.020145938157849E+06,
2459146.844714619, A.D. 2020-Oct-24 08:16:23.3431,  5.844880808227812E+07, -7.900268014841235E+07, -4.460278311068419E+06,
2459149.844714619, A.D. 2020-Oct-27 08:16:23.3431,  6.515034437880331E+07, -7.994841929231802E+07, -4.858585022333141E+06,
2459152.844714619, A.D. 2020-Oct-30 08:16:23.3431,  7.132376552007943E+07, -8.024478197613676E+07, -5.217489105624899E+06,
2459155.844714619, A.D. 2020-Nov-02 08:16:23.3431,  7.698480197974920E+07, -7.996379478333685E+07, -5.538898663743708E+06,
2459158.844714619, A.D. 2020-Nov-05 08:16:23.3431,  8.214552399228071E+07, -7.916252727904919E+07, -5.824302943026599E+06,
2459161.844714619, A.D. 2020-Nov-08 08:16:23.3431,  8.681460324531619E+07, -7.788704538006246E+07, -6.074842481246751E+06,
2459164.844714619, A.D. 2020-Nov-11 08:16:23.3431,  9.099753763079667E+07, -7.617511256667310E+07, -6.291359679525785E+06,
2459167.844714619, A.D. 2020-Nov-14 08:16:23.3431,  9.469681036318852E+07, -7.405809459521401E+07, -6.474434499200169E+06,
